{"type": "FeatureCollection", "features": [ {"type": "Feature", "properties": {"norad_id": 41833, "name": "FENGYUN 1C DEB", "group": "fengyun-1c-debris", "lat": -58.05004546904217, "lon": -146.55632463769717, "alt_km": 775.2243416912006, "timestamp": "2025-12-04T03:47:54.833418+00:00", "meta": {"OBJECT_NAME": "FENGYUN 1C DEB", "OBJECT_ID": "1999-025EYL", "EPOCH": "2025-12-01T10:40:16.856256", "MEAN_MOTION": 14.25661279, "ECCENTRICITY": 0.00535293, "INCLINATION": 98.7504, "RA_OF_ASC_NODE": 45.0337, "ARG_OF_PERICENTER": 255.6089, "MEAN_ANOMALY": 103.9145, "EPHEMERIS_TYPE": 0, "CLASSIFICATION_TYPE": "U", "NORAD_CAT_ID": 41833, "ELEMENT_SET_NO": 999, "REV_AT_EPOCH": 47203, "BSTAR": 0.0020500146, "MEAN_MOTION_DOT": 4.891e-05, "MEAN_MOTION_DDOT": 0}, "tle": {"line1": "1 41833U 99025EYL 25335.44463954  .00004891  00000+0  20500-2 0  9991", "line2": "2 41833  98.7504  45.0337 0053529 255.6089 103.9145 14.25661279472037"}}, "geometry": {"type": "Point", "coordinates": [-146.55632463769717, -58.05004546904217]}}, {"type": "Feature", "properties": {"norad_id": 43213, "name": "FENGYUN 1C DEB", "group": "fengyun-1c-debris", "lat": 37.09877233603539, "lon": -130.70868072519718, "alt_km": 822.781883077082, "timestamp": "2025-12-04T03:47:54.833428+00:00", "meta": {"OBJECT_NAME": "FENGYUN 1C DEB", "OBJECT_ID": "1999-025EYM", "EPOCH": "2025-12-03T03:30:49.973472", "MEAN_MOTION": 14.23745393, "ECCENTRICITY": 0.00540559, "INCLINATION": 98.7343, "RA_OF_ASC_NODE": 41.6102, "ARG_OF_PERICENTER": 254.7571, "MEAN_ANOMALY": 104.7627, "EPHEMERIS_TYPE": 0, "CLASSIFICATION_TYPE": "U", "NORAD_CAT_ID": 43213, "ELEMENT_SET_NO": 999, "REV_AT_EPOCH": 40236, "BSTAR": 0.0020431704, "MEAN_MOTION_DOT": 4.697e-05, "MEAN_MOTION_DDOT": 0}, "tle": {"line1": "1 43213U 99025EYM 25337.14641173  .00004697  00000+0  20432-2 0  9993", "line2": "2 43213  98.7343  41.6102 0054055 254.7571 104.7627 14.23745393402366"}}, "geometry": {"type": "Point", "coordinates": [-130.70868072519718, 37.09877233603539]}}, {"type": "Feature", "properties": {"norad_id": 43214, "name": "FENGYUN 1C DEB", "group": "fengyun-1c-debris", "lat": 58.85696924775614, "lon": 28.178321633195146, "alt_km": 844.7689379452586, "timestamp": "2025-12-04T03:47:54.833438+00:00", "meta": {"OBJECT_NAME": "FENGYUN 1C DEB", "OBJECT_ID": "1999-025EYN", "EPOCH": "2025-12-03T03:54:25.570080", "MEAN_MOTION": 14.2401605, "ECCENTRICITY": 0.00549615, "INCLINATION": 98.7372, "RA_OF_ASC_NODE": 41.933, "ARG_OF_PERICENTER": 254.3993, "MEAN_ANOMALY": 105.1115, "EPHEMERIS_TYPE": 0, "CLASSIFICATION_TYPE": "U", "NORAD_CAT_ID": 43214, "ELEMENT_SET_NO": 999, "REV_AT_EPOCH": 40267, "BSTAR": 0.0021229826, "MEAN_MOTION_DOT": 4.91e-05, "MEAN_MOTION_DDOT": 0}, "tle": {"line1": "1 43214U 99025EYN 25337.16279595  .00004910  00000+0  21230-2 0  9996", "line2": "2 43214  98.7372  41.9330 0054961 254.3993 105.1115 14.24016050402678"}}, "geometry": {"type": "Point", "coordinates": [28.178321633195146, 58.85696924775614]}}, {"type": "Feature", "properties": {"norad_id": 43358, "name": "FENGYUN 1C DEB", "group": "fengyun-1c-debris", "lat": -41.07496132549328, "lon": -88.27913252077805, "alt_km": 839.747216328652, "timestamp": "2025-12-04T03:47:54.833457+00:00", "meta": {"OBJECT_NAME": "FENGYUN 1C DEB", "OBJECT_ID": "1999-025EYP", "EPOCH": "2025-12-03T06:58:22.496160", "MEAN_MOTION": 13.40311994, "ECCENTRICITY": 0.0367404, "INCLINATION": 98.688, "RA_OF_ASC_NODE": 98.6326, "ARG_OF_PERICENTER": 226.4044, "MEAN_ANOMALY": 130.6054, "EPHEMERIS_TYPE": 0, "CLASSIFICATION_TYPE": "U", "NORAD_CAT_ID": 43358, "ELEMENT_SET_NO": 999, "REV_AT_EPOCH": 53604, "BSTAR": 0.0031256, "MEAN_MOTION_DOT": 2.502e-05, "MEAN_MOTION_DDOT": 0}, "tle": {"line1": "1 43358U 99025EYP 25337.29053815  .00002502  00000+0  31256-2 0  9998", "line2": "2 43358  98.6880  98.6326 0367404 226.4044 130.6054 13.40311994536046"}}, "geometry": {"type": "Point", "coordinates": [-88.27913252077805, -41.07496132549328]}}, {"type": "Feature", "properties": {"norad_id": 43359, "name": "FENGYUN 1C DEB", "group": "fengyun-1c-debris", "lat": -10.024131142030685, "lon": 59.518234055098134, "alt_km": 785.0017832072235, "timestamp": "2025-12-04T03:47:54.833469+00:00", "meta": {"OBJECT_NAME": "FENGYUN 1C DEB", "OBJECT_ID": "1999-025EYQ", "EPOCH": "2025-12-03T04:13:15.477312", "MEAN_MOTION": 14.23022125, "ECCENTRICITY": 0.00741146, "INCLINATION": 99.054, "RA_OF_ASC_NODE": 56.8934, "ARG_OF_PERICENTER": 43.17, "MEAN_ANOMALY": 317.5255, "EPHEMERIS_TYPE": 0, "CLASSIFICATION_TYPE": "U", "NORAD_CAT_ID": 43359, "ELEMENT_SET_NO": 999, "REV_AT_EPOCH": 47613, "BSTAR": 0.0025639007, "MEAN_MOTION_DOT": 5.9e-05, "MEAN_MOTION_DDOT": 0}, "tle": {"line1": "1 43359U 99025EYQ 25337.17587358  .00005900  00000+0  25639-2 0  9993", "line2": "2 43359  99.0540  56.8934 0074114  43.1700 317.5255 14.23022125476131"}}, "geometry": {"type": "Point", "coordinates": [59.518234055098134, -10.024131142030685]}}, {"type": "Feature", "properties": {"norad_id": 45526, "name": "FENGYUN 1C DEB", "group": "fengyun-1c-debris", "lat": 16.805963219245086, "lon": 47.6446690878914, "alt_km": 831.0528614709974, "timestamp": "2025-12-04T03:47:54.833479+00:00", "meta": {"OBJECT_NAME": "FENGYUN 1C DEB", "OBJECT_ID": "1999-025EYR", "EPOCH": "2025-12-03T04:08:22.721280", "MEAN_MOTION": 14.25804851, "ECCENTRICITY": 0.00538527, "INCLINATION": 98.7653, "RA_OF_ASC_NODE": 49.33, "ARG_OF_PERICENTER": 249.8754, "MEAN_ANOMALY": 109.6626, "EPHEMERIS_TYPE": 0, "CLASSIFICATION_TYPE": "U", "NORAD_CAT_ID": 45526, "ELEMENT_SET_NO": 999, "REV_AT_EPOCH": 43240, "BSTAR": 0.0024328402, "MEAN_MOTION_DOT": 5.831e-05, "MEAN_MOTION_DDOT": 0}, "tle": {"line1": "1 45526U 99025EYR 25337.17248520  .00005831  00000+0  24328-2 0  9993", "line2": "2 45526  98.7653  49.3300 0053852 249.8754 109.6626 14.25804851432404"}}, "geometry": {"type": "Point", "coordinates": [47.6446690878914, 16.805963219245086]}}, {"type": "Feature", "properties": {"norad_id": 45527, "name": "FENGYUN 1C DEB", "group": "fengyun-1c-debris", "lat": 65.72617790376141, "lon": 24.879491750178286, "alt_km": 843.1604532040037, "timestamp": "2025-12-04T03:47:54.833489+00:00", "meta": {"OBJECT_NAME": "FENGYUN 1C DEB", "OBJECT_ID": "1999-025EYS", "EPOCH": "2025-12-03T03:52:44.018112", "MEAN_MOTION": 14.24385911, "ECCENTRICITY": 0.00544277, "INCLINATION": 98.7404, "RA_OF_ASC_NODE": 43.8343, "ARG_OF_PERICENTER": 253.1442, "MEAN_ANOMALY": 106.3763, "EPHEMERIS_TYPE": 0, "CLASSIFICATION_TYPE": "U", "NORAD_CAT_ID": 45527, "ELEMENT_SET_NO": 999, "REV_AT_EPOCH": 39443, "BSTAR": 0.0021614985, "MEAN_MOTION_DOT": 5.035e-05, "MEAN_MOTION_DDOT": 0}, "tle": {"line1": "1 45527U 99025EYS 25337.16162058  .00005035  00000+0  21615-2 0  9996", "line2": "2 45527  98.7404  43.8343 0054427 253.1442 106.3763 14.24385911394432"}}, "geometry": {"type": "Point", "coordinates": [24.879491750178286, 65.72617790376141]}}, {"type": "Feature", "properties": {"norad_id": 46440, "name": "FENGYUN 1C DEB", "group": "fengyun-1c-debris", "lat": -12.34092350982156, "lon": -176.50422098279537, "alt_km": 721.1743166248043, "timestamp": "2025-12-04T03:47:54.833499+00:00", "meta": {"OBJECT_NAME": "FENGYUN 1C DEB", "OBJECT_ID": "1999-025EYV", "EPOCH": "2025-11-30T21:42:54.078912", "MEAN_MOTION": 14.20290607, "ECCENTRICITY": 0.0175806, "INCLINATION": 98.5947, "RA_OF_ASC_NODE": 2.2289, "ARG_OF_PERICENTER": 169.3708, "MEAN_ANOMALY": 316.1091, "EPHEMERIS_TYPE": 0, "CLASSIFICATION_TYPE": "U", "NORAD_CAT_ID": 46440, "ELEMENT_SET_NO": 999, "REV_AT_EPOCH": 62201, "BSTAR": 0.00034066806, "MEAN_MOTION_DOT": 8.08e-06, "MEAN_MOTION_DDOT": 0}, "tle": {"line1": "1 46440U 99025EYV 25334.90479258  .00000808  00000+0  34067-3 0  9992", "line2": "2 46440  98.5947   2.2289 0175806 169.3708 316.1091 14.20290607622019"}}, "geometry": {"type": "Point", "coordinates": [-176.50422098279537, -12.34092350982156]}}, {"type": "Feature", "properties": {"norad_id": 46443, "name": "FENGYUN 1C DEB", "group": "fengyun-1c-debris", "lat": -39.802971031284294, "lon": 52.59918496290866, "alt_km": 828.5886034496434, "timestamp": "2025-12-04T03:47:54.833509+00:00", "meta": {"OBJECT_NAME": "FENGYUN 1C DEB", "OBJECT_ID": "1999-025EYY", "EPOCH": "2025-12-03T09:32:35.378016", "MEAN_MOTION": 14.10749768, "ECCENTRICITY": 0.0096842, "INCLINATION": 99.2158, "RA_OF_ASC_NODE": 44.0446, "ARG_OF_PERICENTER": 22.6578, "MEAN_ANOMALY": 37.018, "EPHEMERIS_TYPE": 0, "CLASSIFICATION_TYPE": "U", "NORAD_CAT_ID": 46443, "ELEMENT_SET_NO": 999, "REV_AT_EPOCH": 59464, "BSTAR": 0.002173, "MEAN_MOTION_DOT": 4.016e-05, "MEAN_MOTION_DDOT": 0}, "tle": {"line1": "1 46443U 99025EYY 25337.39763169  .00004016  00000+0  21730-2 0  9995", "line2": "2 46443  99.2158  44.0446 0096842  22.6578  37.0180 14.10749768594642"}}, "geometry": {"type": "Point", "coordinates": [52.59918496290866, -39.802971031284294]}}, {"type": "Feature", "properties": {"norad_id": 46444, "name": "FENGYUN 1C DEB", "group": "fengyun-1c-debris", "lat": -37.9793608269903, "lon": 153.6643096748195, "alt_km": 763.1829376020587, "timestamp": "2025-12-04T03:47:54.833519+00:00", "meta": {"OBJECT_NAME": "FENGYUN 1C DEB", "OBJECT_ID": "1999-025EYZ", "EPOCH": "2025-11-29T06:45:16.022016", "MEAN_MOTION": 14.27103748, "ECCENTRICITY": 0.00836434, "INCLINATION": 98.5135, "RA_OF_ASC_NODE": 335.6326, "ARG_OF_PERICENTER": 190.2717, "MEAN_ANOMALY": 186.5379, "EPHEMERIS_TYPE": 0, "CLASSIFICATION_TYPE": "U", "NORAD_CAT_ID": 46444, "ELEMENT_SET_NO": 999, "REV_AT_EPOCH": 62390, "BSTAR": 0.00050592492, "MEAN_MOTION_DOT": 1.237e-05, "MEAN_MOTION_DDOT": 0}, "tle": {"line1": "1 46444U 99025EYZ 25333.28143544  .00001237  00000+0  50592-3 0  9990", "line2": "2 46444  98.5135 335.6326 0083643 190.2717 186.5379 14.27103748623900"}}, "geometry": {"type": "Point", "coordinates": [153.6643096748195, -37.9793608269903]}}]}